{
  "type": "FeatureCollection",
  "features": [
    {
      "type": "Feature",
      "properties": {
        "norad_id": 66869,
        "name": "STARLINK-36092",
        "group": "last-30-days",
        "lat": 19.24824036613609,
        "lon": 96.90339851679151,
        "alt_km": 343.162671483703,
        "timestamp": "2025-12-20T11:30:27.106705+00:00",
        "meta_object_name": "STARLINK-36092",
        "meta_object_id": "2025-281X",
        "meta_epoch": "2025-12-20T04:00:00.999072",
        "meta_mean_motion": 15.75428372,
        "meta_eccentricity": 0.0001291,
        "meta_inclination": 43.0007,
        "meta_ra_of_asc_node": 76.7947,
        "meta_arg_of_pericenter": 280.1326,
        "meta_mean_anomaly": 133.0962,
        "meta_ephemeris_type": 0,
        "meta_classification_type": "U",
        "meta_norad_cat_id": 66869,
        "meta_element_set_no": 999,
        "meta_rev_at_epoch": 262,
        "meta_bstar": -0.0091105,
        "meta_mean_motion_dot": -0.01277302,
        "meta_mean_motion_ddot": 0,
        "tle_line1": "1 66869U 25281X   25354.16667823 -.01277302  00000+0 -91105-2 0  9992",
        "tle_line2": "2 66869  43.0007  76.7947 0001291 280.1326 133.0962 15.75428372  2624"
      },
      "geometry": {
        "type": "Point",
        "coordinates": [
          96.90339851679151,
          19.24824036613609
        ]
      }
    },
    {
      "type": "Feature",
      "properties": {
        "norad_id": 66870,
        "name": "STARLINK-36114",
        "group": "last-30-days",
        "lat": 20.45408921734841,
        "lon": 98.48551473296814,
        "alt_km": 342.9998573031353,
        "timestamp": "2025-12-20T11:30:27.106717+00:00",
        "meta_object_name": "STARLINK-36114",
        "meta_object_id": "2025-281Y",
        "meta_epoch": "2025-12-20T04:00:00.999072",
        "meta_mean_motion": 15.7542198,
        "meta_eccentricity": 0.0001362,
        "meta_inclination": 43.0007,
        "meta_ra_of_asc_node": 76.79,
        "meta_arg_of_pericenter": 281.1564,
        "meta_mean_anomaly": 133.9928,
        "meta_ephemeris_type": 0,
        "meta_classification_type": "U",
        "meta_norad_cat_id": 66870,
        "meta_element_set_no": 999,
        "meta_rev_at_epoch": 248,
        "meta_bstar": -0.009052,
        "meta_mean_motion_dot": -0.01269648,
        "meta_mean_motion_ddot": 0,
        "tle_line1": "1 66870U 25281Y   25354.16667823 -.01269648  00000+0 -90520-2 0  9998",
        "tle_line2": "2 66870  43.0007  76.7900 0001362 281.1564 133.9928 15.75421980  2482"
      },
      "geometry": {
        "type": "Point",
        "coordinates": [
          98.48551473296814,
          20.45408921734841
        ]
      }
    },
    {
      "type": "Feature",
      "properties": {
        "norad_id": 66871,
        "name": "STARLINK-36095",
        "group": "last-30-days",
        "lat": 21.645050455526412,
        "lon": 100.0916095742094,
        "alt_km": 342.90923741879215,
        "timestamp": "2025-12-20T11:30:27.106727+00:00",
        "meta_object_name": "STARLINK-36095",
        "meta_object_id": "2025-281Z",
        "meta_epoch": "2025-12-20T04:00:00.999072",
        "meta_mean_motion": 15.75426999,
        "meta_eccentricity": 0.0001312,
        "meta_inclination": 43.0009,
        "meta_ra_of_asc_node": 76.7849,
        "meta_arg_of_pericenter": 276.3434,
        "meta_mean_anomaly": 140.7192,
        "meta_ephemeris_type": 0,
        "meta_classification_type": "U",
        "meta_norad_cat_id": 66871,
        "meta_element_set_no": 999,
        "meta_rev_at_epoch": 262,
        "meta_bstar": -0.0090727,
        "meta_mean_motion_dot": -0.01272483,
        "meta_mean_motion_ddot": 0,
        "tle_line1": "1 66871U 25281Z   25354.16667823 -.01272483  00000+0 -90727-2 0  9999",
        "tle_line2": "2 66871  43.0009  76.7849 0001312 276.3434 140.7192 15.75426999  2624"
      },
      "geometry": {
        "type": "Point",
        "coordinates": [
          100.0916095742094,
          21.645050455526412
        ]
      }
    },
    {
      "type": "Feature",
      "properties": {
        "norad_id": 66872,
        "name": "STARLINK-36082",
        "group": "last-30-days",
        "lat": 22.8208982921974,
        "lon": 101.72537489161304,
        "alt_km": 342.6830201911116,
        "timestamp": "2025-12-20T11:30:27.106737+00:00",
        "meta_object_name": "STARLINK-36082",
        "meta_object_id": "2025-281AA",
        "meta_epoch": "2025-12-20T04:00:00.999072",
        "meta_mean_motion": 15.75428329,
        "meta_eccentricity": 0.0001328,
        "meta_inclination": 43.001,
        "meta_ra_of_asc_node": 76.7798,
        "meta_arg_of_pericenter": 280.6527,
        "meta_mean_anomaly": 138.3271,
        "meta_ephemeris_type": 0,
        "meta_classification_type": "U",
        "meta_norad_cat_id": 66872,
        "meta_element_set_no": 999,
        "meta_rev_at_epoch": 248,
        "meta_bstar": -0.0091014,
        "meta_mean_motion_dot": -0.01276168,
        "meta_mean_motion_ddot": 0,
        "tle_line1": "1 66872U 25281AA  25354.16667823 -.01276168  00000+0 -91014-2 0  9994",
        "tle_line2": "2 66872  43.0010  76.7798 0001328 280.6527 138.3271 15.75428329  2482"
      },
      "geometry": {
        "type": "Point",
        "coordinates": [
          101.72537489161304,
          22.8208982921974
        ]
      }
    },
    {
      "type": "Feature",
      "properties": {
        "norad_id": 66873,
        "name": "STARLINK-36128",
        "group": "last-30-days",
        "lat": 26.237841815770693,
        "lon": 106.7992083918767,
        "alt_km": 342.24401794154255,
        "timestamp": "2025-12-20T11:30:27.106747+00:00",
        "meta_object_name": "STARLINK-36128",
        "meta_object_id": "2025-281AB",
        "meta_epoch": "2025-12-20T04:00:00.999072",
        "meta_mean_motion": 15.75425525,
        "meta_eccentricity": 0.0001415,
        "meta_inclination": 43.0009,
        "meta_ra_of_asc_node": 76.7647,
        "meta_arg_of_pericenter": 279.8242,
        "meta_mean_anomaly": 144.9004,
        "meta_ephemeris_type": 0,
        "meta_classification_type": "U",
        "meta_norad_cat_id": 66873,
        "meta_element_set_no": 999,
        "meta_rev_at_epoch": 262,
        "meta_bstar": -0.0089949,
        "meta_mean_motion_dot": -0.01262639,
        "meta_mean_motion_ddot": 0,
        "tle_line1": "1 66873U 25281AB  25354.16667823 -.01262639  00000+0 -89949-2 0  9997",
        "tle_line2": "2 66873  43.0009  76.7647 0001415 279.8242 144.9004 15.75425525  2623"
      },
      "geometry": {
        "type": "Point",
        "coordinates": [
          106.7992083918767,
          26.237841815770693
        ]
      }
    },
    {
      "type": "Feature",
      "properties": {
        "norad_id": 66874,
        "name": "STARLINK-36129",
        "group": "last-30-days",
        "lat": 23.97863183262922,
        "lon": 103.38623738095248,
        "alt_km": 342.5549867120262,
        "timestamp": "2025-12-20T11:30:27.106756+00:00",
        "meta_object_name": "STARLINK-36129",
        "meta_object_id": "2025-281AC",
        "meta_epoch": "2025-12-20T04:00:00.999072",
        "meta_mean_motion": 15.75420829,
        "meta_eccentricity": 0.0001341,
        "meta_inclination": 43.0009,
        "meta_ra_of_asc_node": 76.7748,
        "meta_arg_of_pericenter": 279.5958,
        "meta_mean_anomaly": 141.3054,
        "meta_ephemeris_type": 0,
        "meta_classification_type": "U",
        "meta_norad_cat_id": 66874,
        "meta_element_set_no": 999,
        "meta_rev_at_epoch": 262,
        "meta_bstar": -0.0090444,
        "meta_mean_motion_dot": -0.01268613,
        "meta_mean_motion_ddot": 0,
        "tle_line1": "1 66874U 25281AC  25354.16667823 -.01268613  00000+0 -90444-2 0  9998",
        "tle_line2": "2 66874  43.0009  76.7748 0001341 279.5958 141.3054 15.75420829  2623"
      },
      "geometry": {
        "type": "Point",
        "coordinates": [
          103.38623738095248,
          23.97863183262922
        ]
      }
    },
    {
      "type": "Feature",
      "properties": {
        "norad_id": 66875,
        "name": "STARLINK-36053",
        "group": "last-30-days",
        "lat": 27.338348813105036,
        "lon": 108.55719606656459,
        "alt_km": 342.15635196636595,
        "timestamp": "2025-12-20T11:30:27.106766+00:00",
        "meta_object_name": "STARLINK-36053",
        "meta_object_id": "2025-281AD",
        "meta_epoch": "2025-12-20T04:00:00.999072",
        "meta_mean_motion": 15.75432933,
        "meta_eccentricity": 0.0001251,
        "meta_inclination": 43.0011,
        "meta_ra_of_asc_node": 76.7594,
        "meta_arg_of_pericenter": 273.6293,
        "meta_mean_anomaly": 153.0165,
        "meta_ephemeris_type": 0,
        "meta_classification_type": "U",
        "meta_norad_cat_id": 66875,
        "meta_element_set_no": 999,
        "meta_rev_at_epoch": 262,
        "meta_bstar": -0.0091398,
        "meta_mean_motion_dot": -0.01281197,
        "meta_mean_motion_ddot": 0,
        "tle_line1": "1 66875U 25281AD  25354.16667823 -.01281197  00000+0 -91398-2 0  9990",
        "tle_line2": "2 66875  43.0011  76.7594 0001251 273.6293 153.0165 15.75432933  2625"
      },
      "geometry": {
        "type": "Point",
        "coordinates": [
          108.55719606656459,
          27.338348813105036
        ]
      }
    }
  ]
}